NORAD_CAT_ID,OBJECT_NAME,OBJECT_TYPE,EPOCH,MEAN_MOTION,ECCENTRICITY,INCLINATION,RA_OF_ASC_NODE,ARG_OF_PERICENTER,MEAN_ANOMALY,BSTAR,MEAN_MOTION_DOT,MEAN_MOTION_DDOT,TLE_LINE0,TLE_LINE1,TLE_LINE2,SEMIMAJOR_AXIS,PERIOD,APOGEE,PERIGEE,DECAYED
53721.0,STARLINK-4707,PAYLOAD,2023-04-09 17:35:32,15.08834137,0.0001339,53.2177,354.7369,104.3485,255.7655,-6.599e-05,-1.338e-05,0.0,0 STARLINK-4707,1 53721U 22107X   23099.73301829 -.00001338  00000-0 -65990-4 0  9996,2 53721  53.2177 354.7369 0001339 104.3485 255.7655 15.08834137 33644,6917.898,95.438,540.69,538.837,0.0
53721.0,STARLINK-4707,PAYLOAD,2023-04-10 01:32:28,15.08845736,0.000118,53.2169,353.2516,84.7722,275.3405,0.00015108,2.118e-05,0.0,0 STARLINK-4707,1 53721U 22107X   23100.06421339  .00002118  00000-0  15108-3 0  9994,2 53721  53.2169 353.2516 0001180  84.7722 275.3405 15.08845736 33695,6917.863,95.437,540.544,538.912,0.0
53721.0,STARLINK-4707,PAYLOAD,2023-04-11 02:58:37,15.08853556,0.0001267,53.2169,348.4921,92.2026,267.9111,0.00031824,4.782e-05,0.0,0 STARLINK-4707,1 53721U 22107X   23101.12405048  .00004782  00000-0  31824-3 0  9993,2 53721  53.2169 348.4921 0001267  92.2026 267.9111 15.08853556 33395,6917.839,95.437,540.58,538.827,0.0
53721.0,STARLINK-4707,PAYLOAD,2023-04-12 01:14:02,15.08833191,0.0001158,53.2159,344.3294,98.3161,261.7963,-7.1093e-05,-1.419e-05,0.0,0 STARLINK-4707,1 53721U 22107X   23102.05142069 -.00001419  00000-0 -71093-4 0  9996,2 53721  53.2159 344.3294 0001158  98.3161 261.7963 15.08833191 33534,6917.901,95.438,540.567,538.965,0.0
53721.0,STARLINK-4707,PAYLOAD,2023-04-13 01:04:49,15.08847921,0.0001087,53.2156,339.8659,109.9921,250.1188,0.00017931,2.568e-05,0.0,0 STARLINK-4707,1 53721U 22107X   23103.04501656  .00002568  00000-0  17931-3 0  9991,2 53721  53.2156 339.8659 0001087 109.9921 250.1188 15.08847921 34144,6917.856,95.437,540.473,538.969,0.0
53721.0,STARLINK-4707,PAYLOAD,2023-04-14 00:55:36,15.08844494,0.0001184,53.2171,335.4062,81.1596,278.953,0.00014668,2.048e-05,0.0,0 STARLINK-4707,1 53721U 22107X   23104.03862105  .00002048  00000-0  14668-3 0  9997,2 53721  53.2171 335.4062 0001184  81.1596 278.9530 15.08844494 33834,6917.867,95.437,540.551,538.913,0.0
53721.0,STARLINK-4707,PAYLOAD,2023-04-15 00:46:23,15.08849661,0.0001116,53.2154,330.9468,84.699,275.4129,0.00032703,4.922e-05,0.0,0 STARLINK-4707,1 53721U 22107X   23105.03221966  .00004922  00000-0  32703-3 0  9995,2 53721  53.2154 330.9468 0001116  84.6990 275.4129 15.08849661 34441,6917.851,95.437,540.488,538.944,0.0
53721.0,STARLINK-4707,PAYLOAD,2023-04-15 21:26:24,15.08845636,9.65e-05,53.2159,327.0817,88.3019,271.8083,0.00013218,1.817e-05,0.0,0 STARLINK-4707,1 53721U 22107X   23105.89334056  .00001817  00000-0  13218-3 0  9994,2 53721  53.2159 327.0817 0000965  88.3019 271.8083 15.08845636 34576,6917.863,95.437,540.396,539.061,0.0
53721.0,STARLINK-4707,PAYLOAD,2023-04-16 00:37:10,15.08848422,0.0001014,53.2157,326.4866,90.1122,269.9986,0.00020314,2.947e-05,0.0,0 STARLINK-4707,1 53721U 22107X   23106.02581966  .00002947  00000-0  20314-3 0  9994,2 53721  53.2157 326.4866 0001014  90.1122 269.9986 15.08848422 34591,6917.855,95.437,540.421,539.018,0.0
53721.0,STARLINK-4707,PAYLOAD,2023-04-16 19:41:48,15.08836151,0.000121,53.2161,322.9182,101.4751,258.6377,9.8406e-06,-1.31e-06,0.0,0 STARLINK-4707,1 53721U 22107X   23106.82070403 -.00000131  00000-0  98406-5 0  9994,2 53721  53.2161 322.9182 0001210 101.4751 258.6377 15.08836151 34258,6917.892,95.438,540.594,538.92,0.0
53721.0,STARLINK-4707,PAYLOAD,2023-04-16 21:17:11,15.08849022,9.76e-05,53.2161,322.6209,99.2731,260.8372,0.00033489,5.047e-05,0.0,0 STARLINK-4707,1 53721U 22107X   23106.88694024  .00005047  00000-0  33489-3 0  9999,2 53721  53.2161 322.6209 0000976  99.2731 260.8372 15.08849022 34728,6917.853,95.437,540.393,539.043,0.0
53721.0,STARLINK-4707,PAYLOAD,2023-04-17 13:11:03,15.088421,0.0001323,53.2152,319.647,98.1113,262.0029,0.00019445,2.808e-05,0.0,0 STARLINK-4707,1 53721U 22107X   23107.54934455  .00002808  00000-0  19445-3 0  9996,2 53721  53.2152 319.6470 0001323  98.1113 262.0029 15.08842100 34827,6917.874,95.437,540.654,538.824,0.0
53721.0,STARLINK-4707,PAYLOAD,2023-04-17 21:07:58,15.08844833,9.84e-05,53.2152,318.16,99.6293,260.481,0.00019728,2.854e-05,0.0,0 STARLINK-4707,1 53721U 22107X   23107.88054323  .00002854  00000-0  19728-3 0  9995,2 53721  53.2152 318.1600 0000984  99.6293 260.4810 15.08844833 34873,6917.866,95.437,540.411,539.05,0.0
53721.0,STARLINK-4707,PAYLOAD,2023-04-18 00:18:45,15.0884555,9.96e-05,53.2154,317.5654,98.5105,261.6,0.0002683,3.985e-05,0.0,0 STARLINK-4707,1 53721U 22107X   23108.01302328  .00003985  00000-0  26830-3 0  9990,2 53721  53.2154 317.5654 0000996  98.5105 261.6000 15.08845550 34893,6917.863,95.437,540.417,539.039,0.0
53721.0,STARLINK-4707,PAYLOAD,2023-04-18 14:37:13,15.08839564,0.0001124,53.2155,314.8888,103.3109,256.8008,9.9131e-05,1.29e-05,0.0,0 STARLINK-4707,1 53721U 22107X   23108.60918679  .00001290  00000-0  99131-4 0  9999,2 53721  53.2155 314.8888 0001124 103.3109 256.8008 15.08839564 34528,6917.882,95.438,540.524,538.969,0.0
53721.0,STARLINK-4707,PAYLOAD,2023-04-18 17:48:00,15.08839201,0.000104,53.2151,314.2947,98.3586,261.7524,9.4038e-05,1.209e-05,0.0,0 STARLINK-4707,1 53721U 22107X   23108.74166712  .00001209  00000-0  94038-4 0  9998,2 53721  53.2151 314.2947 0001040  98.3586 261.7524 15.08839201 35003,6917.883,95.438,540.467,539.028,0.0
53721.0,STARLINK-4707,PAYLOAD,2023-04-19 00:09:32,15.08845269,9.05e-05,53.2152,313.1043,95.4435,264.666,0.00028481,4.249e-05,0.0,0 STARLINK-4707,1 53721U 22107X   23109.00662554  .00004249  00000-0  28481-3 0  9998,2 53721  53.2152 313.1043 0000905  95.4435 264.6660 15.08845269 35047,6917.864,95.437,540.355,539.103,0.0
53721.0,STARLINK-4707,PAYLOAD,2023-04-19 17:38:46,15.08848075,9.2e-05,53.2152,309.8321,85.8439,274.2658,0.00020165,2.924e-05,0.0,0 STARLINK-4707,1 53721U 22107X   23109.73526489  .00002924  00000-0  20165-3 0  9993,2 53721  53.2152 309.8321 0000920  85.8439 274.2658 15.08848075 35156,6917.856,95.437,540.357,539.084,0.0
53721.0,STARLINK-4707,PAYLOAD,2023-04-20 00:00:19,15.08855515,9.48e-05,53.2151,308.6428,83.9671,276.1429,0.00035916,5.435e-05,0.0,0 STARLINK-4707,1 53721U 22107X   23110.00022146  .00005435  00000-0  35916-3 0  9996,2 53721  53.2151 308.6428 0000948  83.9671 276.1429 15.08855515 34734,6917.833,95.437,540.354,539.042,0.0
53721.0,STARLINK-4707,PAYLOAD,2023-04-20 19:04:57,15.08840216,0.0001142,53.2152,305.0763,73.4062,286.7055,0.00010414,1.37e-05,0.0,0 STARLINK-4707,1 53721U 22107X   23110.79510778  .00001370  00000-0  10414-3 0  9995,2 53721  53.2152 305.0763 0001142  73.4062 286.7055 15.08840216 35312,6917.88,95.438,540.535,538.955,0.0
53721.0,STARLINK-4707,PAYLOAD,2023-04-20 20:40:20,15.0884165,0.0001026,53.2148,304.7768,82.7101,277.4008,0.00010712,1.418e-05,0.0,0 STARLINK-4707,1 53721U 22107X   23110.86134797  .00001418  00000-0  10712-3 0  9990,2 53721  53.2148 304.7768 0001026  82.7101 277.4008 15.08841650 34863,6917.875,95.437,540.45,539.031,0.0
53721.0,STARLINK-4707,PAYLOAD,2023-04-21 12:34:11,15.08841062,0.0001169,53.215,301.8055,86.1548,273.9577,0.00014338,1.995e-05,0.0,0 STARLINK-4707,1 53721U 22107X   23111.52374978  .00001995  00000-0  14338-3 0  9999,2 53721  53.2150 301.8055 0001169  86.1548 273.9577 15.08841062 35426,6917.877,95.437,540.551,538.933,0.0
53721.0,STARLINK-4707,PAYLOAD,2023-04-21 18:55:44,15.08846434,0.0001088,53.2146,300.6168,75.8078,284.3035,0.0001754,2.505e-05,0.0,0 STARLINK-4707,1 53721U 22107X   23111.78870726  .00002505  00000-0  17540-3 0  9995,2 53721  53.2146 300.6168 0001088  75.8078 284.3035 15.08846434 35463,6917.861,95.437,540.478,538.973,0.0
53721.0,STARLINK-4707,PAYLOAD,2023-04-22 12:24:58,15.08841521,9.15e-05,53.2137,297.3441,74.495,285.6143,0.00025708,3.806e-05,0.0,0 STARLINK-4707,1 53721U 22107X   23112.51734944  .00003806  00000-0  25708-3 0  9998,2 53721  53.2137 297.3441 0000915  74.4950 285.6143 15.08841521 35119,6917.876,95.437,540.374,539.108,0.0
53721.0,STARLINK-4707,PAYLOAD,2023-04-23 12:15:46,15.0883229,0.000105,53.2152,292.8835,87.582,272.5293,0.00026389,3.914e-05,0.0,0 STARLINK-4707,1 53721U 22107X   23113.51095550  .00003914  00000-0  26389-3 0  9998,2 53721  53.2152 292.8835 0001050  87.5820 272.5293 15.08832290 35726,6917.904,95.438,540.495,539.043,0.0
53721.0,STARLINK-4707,PAYLOAD,2023-04-23 17:01:55,15.08846655,0.0001016,53.2153,291.991,84.6356,275.4752,0.00012523,1.706e-05,0.0,0 STARLINK-4707,1 53721U 22107X   23113.70966893  .00001706  00000-0  12523-3 0  9998,2 53721  53.2153 291.9910 0001016  84.6356 275.4752 15.08846655 35299,6917.86,95.437,540.428,539.022,0.0
53721.0,STARLINK-4707,PAYLOAD,2023-04-24 12:06:31,15.08855773,0.0001183,53.2169,288.4233,91.1608,268.9519,0.00024176,3.563e-05,0.0,0 STARLINK-4707,1 53721U 22107X   23114.50453672  .00003563  00000-0  24176-3 0  9993,2 53721  53.2169 288.4233 0001183  91.1608 268.9519 15.08855773 35416,6917.832,95.437,540.516,538.879,0.0
53721.0,STARLINK-4707,PAYLOAD,2023-04-25 04:00:24,15.088225,0.0001584,53.216,285.4472,89.9263,270.1911,-0.00021219,-3.662e-05,0.0,0 STARLINK-4707,1 53721U 22107X   23115.16695397 -.00003662  00000-0 -21219-3 0  9995,2 53721  53.2160 285.4472 0001584  89.9263 270.1911 15.08822500 35510,6917.934,95.439,540.895,538.703,0.0
53721.0,STARLINK-4707,PAYLOAD,2023-04-25 11:57:22,15.08793308,0.0001305,53.2157,283.9602,95.1264,264.9877,-0.00065976,-0.00010759,0.0,0 STARLINK-4707,1 53721U 22107X   23115.49817401 -.00010759  00000-0 -65976-3 0  9996,2 53721  53.2157 283.9602 0001305  95.1264 264.9877 15.08793308 35565,6918.023,95.441,540.791,538.985,0.0
53721.0,STARLINK-4707,PAYLOAD,2023-04-26 10:12:46,15.08815934,0.0001404,53.2204,279.7975,235.4438,124.6421,-0.00048037,-7.92e-05,0.0,0 STARLINK-4707,1 53721U 22107X   23116.42553680 -.00007920  00000-0 -48037-3 0  9991,2 53721  53.2204 279.7975 0001404 235.4438 124.6421 15.08815934 36160,6917.954,95.439,540.79,538.848,0.0
